EUTELSAT 7A             
1 28187U 04008A   25217.47999128  .00000107  00000+0  00000+0 0  9990
2 28187   5.0228  75.7970 0001056  74.0834 197.9894  1.00274522 78418
EUTELSAT 174A           
1 28924U 05052A   25216.86530345  .00000015  00000+0  00000+0 0  9991
2 28924   3.4123  80.4917 0006299  51.3109 307.3557  1.00270499 49155
EUTELSAT HOTBIRD 13B    
1 29270U 06032A   25216.89906030  .00000164  00000+0  00000+0 0  9991
2 29270   0.8395  85.8273 0004137  47.6055 177.0364  1.00275515 44138
EUTELSAT HOTBIRD 13C    
1 33459U 08065A   25216.87127861 -.00000093  00000+0  00000+0 0  9990
2 33459   2.1321  83.0017 0003572  60.1827 111.6389  1.00272227 44173
EUTELSAT 36B            
1 36101U 09065A   25217.19769856  .00000121  00000+0  00000+0 0  9991
2 36101   0.0518 349.3629 0005897 143.8568 302.4177  1.00271429 57649
EUTELSAT KA-SAT 9A      
1 37258U 10069A   25217.34211612  .00000069  00000+0  00000+0 0  9991
2 37258   0.0580 304.2348 0004159 184.6371 317.4057  1.00270599 53652
EUTELSAT 7 WEST A       
1 37816U 11051A   25217.40036414 -.00000052  00000+0  00000+0 0  9998
2 37816   0.0700 330.4097 0005405 178.8630 301.7524  1.00274191 50807
EUTELSAT 16A            
1 37836U 11057A   25216.76261927  .00000113  00000+0  00000+0 0  9990
2 37836   0.0662  18.0777 0005447 117.6957 108.3169  1.00273493  4156
